[{"OBJECT_NAME":"STARLINK-35047","OBJECT_ID":"2025-218R","EPOCH":"2026-01-02T20:33:25.952832","MEAN_MOTION":15.05606015,"ECCENTRICITY":0.000214,"INCLINATION":97.6011,"RA_OF_ASC_NODE":228.0647,"ARG_OF_PERICENTER":74.4565,"MEAN_ANOMALY":285.6897,"EPHEMERIS_TYPE":0,"CLASSIFICATION_TYPE":"U","NORAD_CAT_ID":65806,"ELEMENT_SET_NO":999,"REV_AT_EPOCH":1506,"BSTAR":-9.9413e-5,"MEAN_MOTION_DOT":-1.493e-5,"MEAN_MOTION_DDOT":0},{"OBJECT_NAME":"STARLINK-35285","OBJECT_ID":"2025-218S","EPOCH":"2026-01-02T20:41:22.767648","MEAN_MOTION":15.05654648,"ECCENTRICITY":0.0002946,"INCLINATION":97.6019,"RA_OF_ASC_NODE":228.0567,"ARG_OF_PERICENTER":72.7144,"MEAN_ANOMALY":287.4405,"EPHEMERIS_TYPE":0,"CLASSIFICATION_TYPE":"U","NORAD_CAT_ID":65807,"ELEMENT_SET_NO":999,"REV_AT_EPOCH":1506,"BSTAR":0.0004203,"MEAN_MOTION_DOT":6.01e-5,"MEAN_MOTION_DDOT":0},{"OBJECT_NAME":"STARLINK-34580","OBJECT_ID":"2025-218T","EPOCH":"2026-01-02T20:29:25.746144","MEAN_MOTION":15.05677941,"ECCENTRICITY":0.0001687,"INCLINATION":97.6011,"RA_OF_ASC_NODE":228.0677,"ARG_OF_PERICENTER":89.1272,"MEAN_ANOMALY":271.0148,"EPHEMERIS_TYPE":0,"CLASSIFICATION_TYPE":"U","NORAD_CAT_ID":65808,"ELEMENT_SET_NO":999,"REV_AT_EPOCH":1506,"BSTAR":0.00075198,"MEAN_MOTION_DOT":0.00010814,"MEAN_MOTION_DDOT":0},{"OBJECT_NAME":"STARLINK-35289","OBJECT_ID":"2025-218U","EPOCH":"2026-01-02T12:18:57.702240","MEAN_MOTION":15.05677773,"ECCENTRICITY":0.000155,"INCLINATION":97.6015,"RA_OF_ASC_NODE":227.75,"ARG_OF_PERICENTER":94.78,"MEAN_ANOMALY":265.3603,"EPHEMERIS_TYPE":0,"CLASSIFICATION_TYPE":"U","NORAD_CAT_ID":65809,"ELEMENT_SET_NO":999,"REV_AT_EPOCH":1501,"BSTAR":0.00054190611,"MEAN_MOTION_DOT":7.773e-5,"MEAN_MOTION_DDOT":0},{"OBJECT_NAME":"STARLINK-35268","OBJECT_ID":"2025-218V","EPOCH":"2026-01-02T15:18:23.817888","MEAN_MOTION":15.05657348,"ECCENTRICITY":0.00019515,"INCLINATION":97.6025,"RA_OF_ASC_NODE":227.894,"ARG_OF_PERICENTER":76.2241,"MEAN_ANOMALY":283.9202,"EPHEMERIS_TYPE":0,"CLASSIFICATION_TYPE":"U","NORAD_CAT_ID":65810,"ELEMENT_SET_NO":999,"REV_AT_EPOCH":1503,"BSTAR":0.00051362197,"MEAN_MOTION_DOT":7.36e-5,"MEAN_MOTION_DDOT":0},{"OBJECT_NAME":"STARLINK-35224","OBJECT_ID":"2025-218W","EPOCH":"2026-01-02T12:10:58.962432","MEAN_MOTION":15.05661404,"ECCENTRICITY":0.00021691,"INCLINATION":97.6023,"RA_OF_ASC_NODE":227.7593,"ARG_OF_PERICENTER":64.6362,"MEAN_ANOMALY":295.509,"EPHEMERIS_TYPE":0,"CLASSIFICATION_TYPE":"U","NORAD_CAT_ID":65811,"ELEMENT_SET_NO":999,"REV_AT_EPOCH":1501,"BSTAR":0.00067795728,"MEAN_MOTION_DOT":9.738e-5,"MEAN_MOTION_DDOT":0},{"OBJECT_NAME":"STARLINK-35271","OBJECT_ID":"2025-218X","EPOCH":"2026-01-02T19:53:31.320672","MEAN_MOTION":15.05652738,"ECCENTRICITY":0.0002427,"INCLINATION":97.6036,"RA_OF_ASC_NODE":228.1018,"ARG_OF_PERICENTER":73.6759,"MEAN_ANOMALY":286.4735,"EPHEMERIS_TYPE":0,"CLASSIFICATION_TYPE":"U","NORAD_CAT_ID":65812,"ELEMENT_SET_NO":999,"REV_AT_EPOCH":1506,"BSTAR":-0.0011727,"MEAN_MOTION_DOT":-0.00016944,"MEAN_MOTION_DDOT":0},{"OBJECT_NAME":"STARLINK-35215","OBJECT_ID":"2025-218Y","EPOCH":"2026-01-02T14:58:27.842304","MEAN_MOTION":15.05656212,"ECCENTRICITY":0.00024444,"INCLINATION":97.6035,"RA_OF_ASC_NODE":227.9129,"ARG_OF_PERICENTER":88.1049,"MEAN_ANOMALY":272.0458,"EPHEMERIS_TYPE":0,"CLASSIFICATION_TYPE":"U","NORAD_CAT_ID":65813,"ELEMENT_SET_NO":999,"REV_AT_EPOCH":1503,"BSTAR":0.00044854103,"MEAN_MOTION_DOT":6.418e-5,"MEAN_MOTION_DDOT":0},{"OBJECT_NAME":"STARLINK-35157","OBJECT_ID":"2025-218Z","EPOCH":"2026-01-02T14:54:28.708704","MEAN_MOTION":15.05654965,"ECCENTRICITY":0.00023007,"INCLINATION":97.6039,"RA_OF_ASC_NODE":227.916,"ARG_OF_PERICENTER":90.3898,"MEAN_ANOMALY":269.7592,"EPHEMERIS_TYPE":0,"CLASSIFICATION_TYPE":"U","NORAD_CAT_ID":65814,"ELEMENT_SET_NO":999,"REV_AT_EPOCH":1503,"BSTAR":0.00041621491,"MEAN_MOTION_DOT":5.951e-5,"MEAN_MOTION_DDOT":0},{"OBJECT_NAME":"STARLINK-35392","OBJECT_ID":"2025-221A","EPOCH":"2026-01-02T13:25:01.814592","MEAN_MOTION":15.30216639,"ECCENTRICITY":0.00012488,"INCLINATION":53.1591,"RA_OF_ASC_NODE":35.8655,"ARG_OF_PERICENTER":88.336,"MEAN_ANOMALY":271.7784,"EPHEMERIS_TYPE":0,"CLASSIFICATION_TYPE":"U","NORAD_CAT_ID":65823,"ELEMENT_SET_NO":999,"REV_AT_EPOCH":1595,"BSTAR":0.0011414306,"MEAN_MOTION_DOT":0.00033617,"MEAN_MOTION_DDOT":0},{"OBJECT_NAME":"STARLINK-35281","OBJECT_ID":"2025-221B","EPOCH":"2026-01-02T11:55:32.192832","MEAN_MOTION":15.30209502,"ECCENTRICITY":0.00013179,"INCLINATION":53.16,"RA_OF_ASC_NODE":36.1893,"ARG_OF_PERICENTER":90.3555,"MEAN_ANOMALY":269.7597,"EPHEMERIS_TYPE":0,"CLASSIFICATION_TYPE":"U","NORAD_CAT_ID":65824,"ELEMENT_SET_NO":999,"REV_AT_EPOCH":1594,"BSTAR":0.0017419582,"MEAN_MOTION_DOT":0.00051607,"MEAN_MOTION_DDOT":0},{"OBJECT_NAME":"STARLINK-35397","OBJECT_ID":"2025-221C","EPOCH":"2026-01-02T11:11:28.288032","MEAN_MOTION":15.30203013,"ECCENTRICITY":0.00015372,"INCLINATION":53.1614,"RA_OF_ASC_NODE":35.9944,"ARG_OF_PERICENTER":73.8329,"MEAN_ANOMALY":286.2841,"EPHEMERIS_TYPE":0,"CLASSIFICATION_TYPE":"U","NORAD_CAT_ID":65825,"ELEMENT_SET_NO":999,"REV_AT_EPOCH":1594,"BSTAR":0.00135553,"MEAN_MOTION_DOT":0.00040008,"MEAN_MOTION_DDOT":0},{"OBJECT_NAME":"STARLINK-35381","OBJECT_ID":"2025-221D","EPOCH":"2026-01-02T18:41:58.560000","MEAN_MOTION":15.30219295,"ECCENTRICITY":0.0001341,"INCLINATION":53.1598,"RA_OF_ASC_NODE":34.3876,"ARG_OF_PERICENTER":88.5478,"MEAN_ANOMALY":271.5676,"EPHEMERIS_TYPE":0,"CLASSIFICATION_TYPE":"U","NORAD_CAT_ID":65826,"ELEMENT_SET_NO":999,"REV_AT_EPOCH":1599,"BSTAR":0.0012097,"MEAN_MOTION_DOT":0.00035662,"MEAN_MOTION_DDOT":0},{"OBJECT_NAME":"STARLINK-35393","OBJECT_ID":"2025-221E","EPOCH":"2026-01-02T19:23:00.756096","MEAN_MOTION":15.30214548,"ECCENTRICITY":0.0002138,"INCLINATION":53.1612,"RA_OF_ASC_NODE":34.5684,"ARG_OF_PERICENTER":89.1943,"MEAN_ANOMALY":270.9303,"EPHEMERIS_TYPE":0,"CLASSIFICATION_TYPE":"U","NORAD_CAT_ID":65827,"ELEMENT_SET_NO":999,"REV_AT_EPOCH":1599,"BSTAR":0.00083359,"MEAN_MOTION_DOT":0.00024422,"MEAN_MOTION_DDOT":0},{"OBJECT_NAME":"STARLINK-35396","OBJECT_ID":"2025-221F","EPOCH":"2026-01-02T18:57:10.842912","MEAN_MOTION":15.30211064,"ECCENTRICITY":0.0002106,"INCLINATION":53.1605,"RA_OF_ASC_NODE":34.4534,"ARG_OF_PERICENTER":84.733,"MEAN_ANOMALY":275.3911,"EPHEMERIS_TYPE":0,"CLASSIFICATION_TYPE":"U","NORAD_CAT_ID":65828,"ELEMENT_SET_NO":999,"REV_AT_EPOCH":1599,"BSTAR":0.0014734,"MEAN_MOTION_DOT":0.0004355,"MEAN_MOTION_DDOT":0},{"OBJECT_NAME":"STARLINK-35244","OBJECT_ID":"2025-221G","EPOCH":"2026-01-02T11:50:13.792416","MEAN_MOTION":15.30208905,"ECCENTRICITY":0.00013561,"INCLINATION":53.1605,"RA_OF_ASC_NODE":38.3356,"ARG_OF_PERICENTER":97.7584,"MEAN_ANOMALY":262.3571,"EPHEMERIS_TYPE":0,"CLASSIFICATION_TYPE":"U","NORAD_CAT_ID":65829,"ELEMENT_SET_NO":999,"REV_AT_EPOCH":1587,"BSTAR":0.0016936967,"MEAN_MOTION_DOT":0.00050156,"MEAN_MOTION_DDOT":0},{"OBJECT_NAME":"STARLINK-35368","OBJECT_ID":"2025-221H","EPOCH":"2026-01-02T08:55:01.679808","MEAN_MOTION":15.30215301,"ECCENTRICITY":0.00015663,"INCLINATION":53.1611,"RA_OF_ASC_NODE":36.8252,"ARG_OF_PERICENTER":95.8956,"MEAN_ANOMALY":264.2223,"EPHEMERIS_TYPE":0,"CLASSIFICATION_TYPE":"U","NORAD_CAT_ID":65830,"ELEMENT_SET_NO":999,"REV_AT_EPOCH":1588,"BSTAR":0.001090453,"MEAN_MOTION_DOT":0.00032092,"MEAN_MOTION_DDOT":0},{"OBJECT_NAME":"STARLINK-35337","OBJECT_ID":"2025-221J","EPOCH":"2026-01-02T18:48:03.924000","MEAN_MOTION":15.30209839,"ECCENTRICITY":0.0002333,"INCLINATION":53.1593,"RA_OF_ASC_NODE":34.414,"ARG_OF_PERICENTER":82.3526,"MEAN_ANOMALY":277.7739,"EPHEMERIS_TYPE":0,"CLASSIFICATION_TYPE":"U","NORAD_CAT_ID":65831,"ELEMENT_SET_NO":999,"REV_AT_EPOCH":1599,"BSTAR":0.0014089,"MEAN_MOTION_DOT":0.00041616,"MEAN_MOTION_DDOT":0},{"OBJECT_NAME":"STARLINK-35277","OBJECT_ID":"2025-221K","EPOCH":"2026-01-02T18:52:36.142752","MEAN_MOTION":15.30217883,"ECCENTRICITY":0.0001535,"INCLINATION":53.16,"RA_OF_ASC_NODE":34.4329,"ARG_OF_PERICENTER":89.6661,"MEAN_ANOMALY":270.4515,"EPHEMERIS_TYPE":0,"CLASSIFICATION_TYPE":"U","NORAD_CAT_ID":65832,"ELEMENT_SET_NO":999,"REV_AT_EPOCH":1599,"BSTAR":-7.3359e-5,"MEAN_MOTION_DOT":-2.533e-5,"MEAN_MOTION_DDOT":0},{"OBJECT_NAME":"STARLINK-35345","OBJECT_ID":"2025-221L","EPOCH":"2026-01-02T18:37:25.324320","MEAN_MOTION":15.30224248,"ECCENTRICITY":0.0002049,"INCLINATION":53.1596,"RA_OF_ASC_NODE":34.3688,"ARG_OF_PERICENTER":89.2181,"MEAN_ANOMALY":270.9054,"EPHEMERIS_TYPE":0,"CLASSIFICATION_TYPE":"U","NORAD_CAT_ID":65833,"ELEMENT_SET_NO":999,"REV_AT_EPOCH":1599,"BSTAR":0.0016528,"MEAN_MOTION_DOT":0.00048953,"MEAN_MOTION_DDOT":0},{"OBJECT_NAME":"STARLINK-35320","OBJECT_ID":"2025-221M","EPOCH":"2026-01-02T08:36:47.543904","MEAN_MOTION":15.30205201,"ECCENTRICITY":0.00013788,"INCLINATION":53.1606,"RA_OF_ASC_NODE":36.7465,"ARG_OF_PERICENTER":99.578,"MEAN_ANOMALY":260.5376,"EPHEMERIS_TYPE":0,"CLASSIFICATION_TYPE":"U","NORAD_CAT_ID":65834,"ELEMENT_SET_NO":999,"REV_AT_EPOCH":1457,"BSTAR":0.002123551,"MEAN_MOTION_DOT":0.0006308,"MEAN_MOTION_DDOT":0},{"OBJECT_NAME":"STARLINK-35349","OBJECT_ID":"2025-221N","EPOCH":"2026-01-02T11:54:01.004544","MEAN_MOTION":15.3020757,"ECCENTRICITY":0.00012231,"INCLINATION":53.1602,"RA_OF_ASC_NODE":36.1802,"ARG_OF_PERICENTER":81.8093,"MEAN_ANOMALY":278.3047,"EPHEMERIS_TYPE":0,"CLASSIFICATION_TYPE":"U","NORAD_CAT_ID":65835,"ELEMENT_SET_NO":999,"REV_AT_EPOCH":1459,"BSTAR":0.0016993643,"MEAN_MOTION_DOT":0.00050324,"MEAN_MOTION_DDOT":0},{"OBJECT_NAME":"STARLINK-35356","OBJECT_ID":"2025-221P","EPOCH":"2026-01-02T12:16:38.832384","MEAN_MOTION":15.30201901,"ECCENTRICITY":0.00013079,"INCLINATION":53.1596,"RA_OF_ASC_NODE":35.5627,"ARG_OF_PERICENTER":96.4418,"MEAN_ANOMALY":263.6732,"EPHEMERIS_TYPE":0,"CLASSIFICATION_TYPE":"U","NORAD_CAT_ID":65836,"ELEMENT_SET_NO":999,"REV_AT_EPOCH":1460,"BSTAR":0.0013582467,"MEAN_MOTION_DOT":0.00040088,"MEAN_MOTION_DDOT":0}]
